     2              NAVIGATION DATA                         RINEX VERSION / TYPE
CCRINEXN V1.6.0 UX  CDDIS               20-OCT-11 17:39     PGM / RUN BY / DATE 
IGS BROADCAST EPHEMERIS FILE                                COMMENT             
    0.2515D-07 -0.7451D-08 -0.1192D-06  0.1192D-06          ION ALPHA           
    0.1311D+06 -0.1638D+05 -0.1966D+06 -0.6554D+05          ION BETA            
   -0.745058059692D-08-0.177635683940D-13   589824     1658 DELTA-UTC: A0,A1,T,W
    15                                                      LEAP SECONDS        
                                                            END OF HEADER       
16 11 10 20  8  0  0.0-0.204346608370D-03-0.204636307899D-11 0.000000000000D+00
    0.210000000000D+02-0.653125000000D+02 0.426482050403D-08-0.306026043853D+00
   -0.348314642906D-05 0.614674086683D-02 0.557117164135D-05 0.515354125595D+04
    0.374400000000D+06 0.152736902237D-06 0.724069477611D+00-0.558793544769D-08
    0.977950641855D+00 0.282625000000D+03-0.702006373269D-01-0.815033949435D-08
   -0.167149819604D-09 0.100000000000D+01 0.165800000000D+04 0.000000000000D+00
    0.200000000000D+01 0.000000000000D+00-0.977888703346D-08 0.210000000000D+02
    0.373938000000D+06 0.400000000000D+01 0.000000000000D+00 0.000000000000D+00
17 11 10 20  8  0  0.0 0.169795472175D-03-0.181898940355D-11 0.000000000000D+00
    0.410000000000D+02-0.394687500000D+02 0.444304237845D-08-0.118359161723D+01
   -0.214390456677D-05 0.666431011632D-02 0.966899096966D-05 0.515359032822D+04
    0.374400000000D+06 0.244006514549D-06 0.176613085851D+01 0.204890966415D-07
    0.961525726195D+00 0.196437500000D+03-0.240447652145D+01-0.794283128158D-08
   -0.242867254086D-10 0.100000000000D+01 0.165800000000D+04 0.000000000000D+00
    0.200000000000D+01 0.000000000000D+00-0.107102096081D-07 0.410000000000D+02
    0.410000000000D+02 0.400000000000D+01 0.000000000000D+00 0.000000000000D+00
18 11 10 20  8  0  0.0 0.163020566106D-03 0.181898940355D-11 0.000000000000D+00
    0.710000000000D+02 0.140937500000D+02 0.540058209878D-08 0.262222733372D+00
    0.711530447006D-06 0.127586226445D-01 0.734813511372D-05 0.515363611793D+04
    0.374400000000D+06-0.117346644402D-06-0.244185161043D+01 0.221654772759D-06
    0.931804337871D+00 0.225562500000D+03-0.220885936128D+01-0.863000233138D-08
   -0.232509684962D-09 0.100000000000D+01 0.165800000000D+04 0.000000000000D+00
    0.200000000000D+01 0.000000000000D+00-0.107102096081D-07 0.710000000000D+02
    0.367218000000D+06 0.400000000000D+01 0.000000000000D+00 0.000000000000D+00
19 11 10 20  8  0  0.0-0.196148175746D-03-0.397903932026D-11 0.000000000000D+00
    0.340000000000D+02-0.504375000000D+02 0.442589875860D-08-0.194097841626D+01
   -0.258907675743D-05 0.765078736004D-02 0.956468284130D-05 0.515371132851D+04
    0.374400000000D+06-0.186264514923D-07 0.181978031279D+01-0.651925802231D-07
    0.958997182013D+00 0.195593750000D+03 0.121683749851D+00-0.790997223277D-08
    0.172150030342D-09 0.100000000000D+01 0.165800000000D+04 0.000000000000D+00
    0.200000000000D+01 0.000000000000D+00-0.144354999065D-07 0.340000000000D+02
    0.340000000000D+02 0.400000000000D+01 0.000000000000D+00 0.000000000000D+00
20 11 10 20  8  0  0.0 0.546760857105D-04 0.568434188608D-12 0.000000000000D+00
    0.430000000000D+02 0.116250000000D+02 0.534450833451D-08 0.707703884742D+00
    0.433996319771D-06 0.464765867218D-02 0.672228634357D-05 0.515357133102D+04
    0.374400000000D+06-0.484287738800D-07-0.249570530124D+01-0.223517417908D-07
    0.932120315010D+00 0.233468750000D+03 0.126126619623D+01-0.857249993617D-08
   -0.180007498035D-09 0.100000000000D+01 0.165800000000D+04 0.000000000000D+00
    0.200000000000D+01 0.000000000000D+00-0.745058059692D-08 0.430000000000D+02
    0.367218000000D+06 0.400000000000D+01 0.000000000000D+00 0.000000000000D+00
21 11 10 20  8  0  0.0-0.179061666131D-03-0.250111042988D-11 0.000000000000D+00
    0.900000000000D+02 0.141250000000D+02 0.534843706959D-08 0.135506159265D+01
    0.827014446259D-06 0.181653191103D-01 0.829622149467D-05 0.515369808769D+04
    0.374400000000D+06-0.283122062683D-06 0.278883572076D+01 0.104308128357D-06
    0.931833730821D+00 0.209562500000D+03-0.232348599870D+01-0.859464371570D-08
    0.328585115460D-10 0.000000000000D+00 0.165800000000D+04 0.000000000000D+00
    0.200000000000D+01 0.000000000000D+00-0.116415321827D-07 0.900000000000D+02
    0.367200000000D+06 0.400000000000D+01 0.000000000000D+00 0.000000000000D+00
22 11 10 20  8  0  0.0 0.143808778375D-03-0.113686837722D-12 0.000000000000D+00
    0.400000000000D+02 0.135937500000D+02 0.543201197939D-08-0.594257569122D+00
    0.789761543274D-06 0.587556045502D-02 0.727921724320D-05 0.515369935989D+04
    0.374400000000D+06-0.558793544769D-08-0.243801521602D+01 0.912696123123D-07
    0.929508428386D+00 0.224500000000D+03-0.197094462100D+01-0.857857161766D-08
   -0.162149611325D-09 0.100000000000D+01 0.165800000000D+04 0.000000000000D+00
    0.200000000000D+01 0.000000000000D+00-0.167638063431D-07 0.400000000000D+02
    0.367218000000D+06 0.400000000000D+01 0.000000000000D+00 0.000000000000D+00
23 11 10 20  8  0  0.0 0.266424845904D-03-0.318323145621D-11 0.000000000000D+00
    0.350000000000D+02 0.336250000000D+02 0.448447251057D-08-0.242057822438D+01
    0.169686973095D-05 0.757361447904D-02 0.904686748982D-05 0.515372070694D+04
    0.374400000000D+06-0.912696123123D-07-0.139511497596D+01-0.104308128357D-06
    0.962519596165D+00 0.211687500000D+03-0.304039626683D+01-0.797533220460D-08
   -0.232152527228D-10 0.100000000000D+01 0.165800000000D+04 0.000000000000D+00
    0.200000000000D+01 0.000000000000D+00-0.200234353542D-07 0.350000000000D+02
    0.369258000000D+06 0.400000000000D+01 0.000000000000D+00 0.000000000000D+00
25 11 10 20  8  0  0.0 0.242292881012D-04 0.181898940355D-11 0.000000000000D+00
    0.750000000000D+02-0.694375000000D+02 0.461019203300D-08 0.585499728117D+00
   -0.354461371899D-05 0.101664313115D-02 0.558234751225D-05 0.515358214951D+04
    0.374400000000D+06 0.391155481338D-07 0.674553297944D+00 0.484287738800D-07
    0.965858316081D+00 0.272000000000D+03 0.944265302909D+00-0.829855995405D-08
   -0.158578033983D-09 0.100000000000D+01 0.165800000000D+04 0.000000000000D+00
    0.200000000000D+01 0.000000000000D+00 0.558793544769D-08 0.750000000000D+02
    0.368298000000D+06 0.400000000000D+01 0.000000000000D+00 0.000000000000D+00
26 11 10 20  8  0  0.0-0.196854118258D-03-0.131876731757D-10 0.000000000000D+00
    0.410000000000D+02 0.553750000000D+02 0.393123518030D-08-0.258742428586D+01
    0.260584056377D-05 0.204081173288D-01 0.809133052826D-05 0.515365517807D+04
    0.374400000000D+06 0.305473804474D-06-0.132704968700D+01-0.763684511185D-07
    0.985544367262D+00 0.233593750000D+03 0.116316712450D+01-0.747102548391D-08
    0.950039572962D-10 0.000000000000D+00 0.165800000000D+04 0.000000000000D+00
    0.200000000000D+01 0.000000000000D+00-0.605359673500D-08 0.410000000000D+02
    0.367200000000D+06 0.400000000000D+01 0.000000000000D+00 0.000000000000D+00
27 11 10 20  8  0  0.0 0.316955149174D-03 0.375166564481D-11 0.000000000000D+00
    0.290000000000D+02 0.479687500000D+02 0.420660379336D-08-0.163107316863D+01
    0.293739140034D-05 0.217154708225D-01 0.568479299545D-05 0.515361125755D+04
    0.374400000000D+06-0.312924385071D-06-0.402476986222D+00 0.411644577980D-06
    0.981774693623D+00 0.286781250000D+03-0.119175739773D+01-0.808855120634D-08
    0.178221709364D-09 0.000000000000D+00 0.165800000000D+04 0.000000000000D+00
    0.280000000000D+01 0.630000000000D+02-0.419095158577D-08 0.290000000000D+02
    0.367200000000D+06 0.400000000000D+01 0.000000000000D+00 0.000000000000D+00
28 11 10 20  8  0  0.0 0.770729966462D-04 0.318323145621D-11 0.000000000000D+00
    0.540000000000D+02-0.525312500000D+02 0.441946980294D-08-0.543969189609D+00
   -0.270456075668D-05 0.173176917015D-01 0.584498047829D-05 0.515370632553D+04
    0.374400000000D+06-0.189989805222D-06 0.731087800764D+00 0.113621354103D-06
    0.976262800121D+00 0.276125000000D+03-0.187700350916D+01-0.844106588999D-08
   -0.136791412197D-09 0.000000000000D+00 0.165800000000D+04 0.000000000000D+00
    0.200000000000D+01 0.000000000000D+00-0.102445483208D-07 0.540000000000D+02
    0.367620000000D+06 0.400000000000D+01 0.000000000000D+00 0.000000000000D+00
29 11 10 20  8  0  0.0 0.249993521720D-03 0.341060513165D-11 0.000000000000D+00
    0.140000000000D+02-0.505312500000D+02 0.443125600817D-08 0.155708025265D+01
   -0.269711017609D-05 0.212874182034D-02 0.103265047073D-04 0.515370736122D+04
    0.374400000000D+06 0.558793544769D-07 0.177458647380D+01 0.000000000000D+00
    0.962006372318D+00 0.178906250000D+03-0.116535074186D+01-0.792640159501D-08
    0.914323799542D-10 0.000000000000D+00 0.165800000000D+04 0.000000000000D+00
    0.200000000000D+01 0.000000000000D+00-0.931322574616D-08 0.140000000000D+02
    0.367200000000D+06 0.400000000000D+01 0.000000000000D+00 0.000000000000D+00
30 11 10 20  8  0  0.0 0.242292881012D-04 0.181898940355D-11 0.000000000000D+00
    0.750000000000D+02-0.694375000000D+02 0.461019203300D-08 0.585499728117D+00
   -0.354461371899D-05 0.101664313115D-02 0.558234751225D-05 0.515358214951D+04
    0.374400000000D+06 0.391155481338D-07 0.674553297944D+00 0.484287738800D-07
    0.965858316081D+00 0.272000000000D+03 0.944265302909D+00-0.829855995405D-08
   -0.158578033983D-09 0.100000000000D+01 0.165800000000D+04 0.000000000000D+00
    0.200000000000D+01 0.000000000000D+00 0.558793544769D-08 0.750000000000D+02
    0.370530000000D+06 0.000000000000D+00 0.000000000000D+00 0.000000000000D+00
